XRISM                   
1 57800U 23137A   26093.53422592  .00009122  00000+0  51504-3 0  9999
2 57800  31.0011 122.9307 0007841 288.5773  71.4014 15.11805272141557
ACS3                    
1 59588U 24077B   26093.68882594  .00027071  00000+0  21129-1 0  9997
2 59588  97.1954  29.1827 0073394  20.1741 340.2298 13.90830670 97676
HTV-X1                  
1 66174U 25241A   26093.82199054  .00008122  00000+0  26600-3 0  9995
2 66174  51.6360 311.9230 0007281 269.6353  90.3794 15.32523004 24797
SZ-21 MODULE            
1 66515U 25246C   26093.57082554  .00056445  00000+0  44364-3 0  9995
2 66515  41.4748  49.9717 0002970 226.3876 133.6720 15.70603524 21987
